start=new Date('2022-08-20T00:00:00.000Z').valueOf();
sats=[{"EPOCH":"2022-08-19T22:00:00.999936","SITE":"AFETR","FILE":"3540705","PERIAPSIS":"538.199","ARG_OF_PERICENTER":"51.7672","GP_ID":"210550459","MEAN_ANOMALY":"133.5141","REV_AT_EPOCH":"130","OBJECT_NAME":"STARLINK-4076","LAUNCH_DATE":"2022-05-18","MEAN_MOTION":"15.08821777","ELEMENT_SET_NO":"999","REF_FRAME":"TEME","CENTER_NAME":"EARTH","CLASSIFICATION_TYPE":"U","MEAN_MOTION_DOT":"0.00031341","SEMIMAJOR_AXIS":"6917.936","MEAN_MOTION_DDOT":"0.0000000000000","ECCENTRICITY":"0.00023160","COUNTRY_CODE":"US","TIME_SYSTEM":"UTC","MEAN_ELEMENT_THEORY":"SGP4","TLE_LINE2":"2 52667  53.2182 220.0473 0002316  51.7672 133.5141 15.08821777  1305","BSTAR":"0.00197950000000","TLE_LINE1":"1 52667U 22053M   22231.91667824  .00031341  00000-0  19795-2 0  9996","RCS_SIZE":"LARGE","NORAD_CAT_ID":"52667","INCLINATION":"53.2182","OBJECT_ID":"2022-053M","EPHEMERIS_TYPE":"0","RA_OF_ASC_NODE":"220.0473","OBJECT_TYPE":"PAYLOAD","DECAY_DATE":null,"APOAPSIS":"541.403","PERIOD":"95.439"},{"RA_OF_ASC_NODE":"220.0488","EPHEMERIS_TYPE":"0","OBJECT_ID":"2022-053N","INCLINATION":"53.2177","PERIOD":"95.439","DECAY_DATE":null,"APOAPSIS":"541.298","OBJECT_TYPE":"PAYLOAD","ECCENTRICITY":"0.00021420","COUNTRY_CODE":"US","RCS_SIZE":"LARGE","NORAD_CAT_ID":"52668","BSTAR":"0.00208880000000","TLE_LINE1":"1 52668U 22053N   22231.91667824  .00033091  00000-0  20888-2 0  9996","TIME_SYSTEM":"UTC","TLE_LINE2":"2 52668  53.2177 220.0488 0002142  48.3650  96.9194 15.08816864  1302","MEAN_ELEMENT_THEORY":"SGP4","MEAN_MOTION_DOT":"0.00033091","CENTER_NAME":"EARTH","CLASSIFICATION_TYPE":"U","MEAN_MOTION_DDOT":"0.0000000000000","SEMIMAJOR_AXIS":"6917.951","ARG_OF_PERICENTER":"48.3650","PERIAPSIS":"538.334","FILE":"3540705","SITE":"AFETR","EPOCH":"2022-08-19T22:00:00.999936","ELEMENT_SET_NO":"999","REF_FRAME":"TEME","MEAN_MOTION":"15.08816864","REV_AT_EPOCH":"130","OBJECT_NAME":"STARLINK-4067","LAUNCH_DATE":"2022-05-18","MEAN_ANOMALY":"96.9194","GP_ID":"210549613"},{"RA_OF_ASC_NODE":"220.0465","EPHEMERIS_TYPE":"0","OBJECT_ID":"2022-053P","INCLINATION":"53.2192","PERIOD":"95.439","APOAPSIS":"541.466","DECAY_DATE":null,"OBJECT_TYPE":"PAYLOAD","COUNTRY_CODE":"US","ECCENTRICITY":"0.00023830","RCS_SIZE":"LARGE","NORAD_CAT_ID":"52669","BSTAR":"0.00212740000000","TLE_LINE1":"1 52669U 22053P   22231.91667824  .00033711  00000-0  21274-2 0  9996","TLE_LINE2":"2 52669  53.2192 220.0465 0002383  47.5989 197.6806 15.08816427  1302","MEAN_ELEMENT_THEORY":"SGP4","TIME_SYSTEM":"UTC","MEAN_MOTION_DOT":"0.00033711","CLASSIFICATION_TYPE":"U","CENTER_NAME":"EARTH","MEAN_MOTION_DDOT":"0.0000000000000","SEMIMAJOR_AXIS":"6917.952","ARG_OF_PERICENTER":"47.5989","PERIAPSIS":"538.169","FILE":"3540705","SITE":"AFETR","EPOCH":"2022-08-19T22:00:00.999936","ELEMENT_SET_NO":"999","REF_FRAME":"TEME","MEAN_MOTION":"15.08816427","LAUNCH_DATE":"2022-05-18","OBJECT_NAME":"STARLINK-3972","REV_AT_EPOCH":"130","MEAN_ANOMALY":"197.6806","GP_ID":"210549754"},{"MEAN_MOTION_DDOT":"0.0000000000000","SEMIMAJOR_AXIS":"6917.929","MEAN_MOTION_DOT":"0.00032301","CENTER_NAME":"EARTH","CLASSIFICATION_TYPE":"U","ELEMENT_SET_NO":"999","REF_FRAME":"TEME","MEAN_MOTION":"15.08824098","REV_AT_EPOCH":"130","OBJECT_NAME":"STARLINK-4075","LAUNCH_DATE":"2022-05-18","GP_ID":"210549886","MEAN_ANOMALY":"106.9940","ARG_OF_PERICENTER":"53.0784","PERIAPSIS":"538.282","SITE":"AFETR","FILE":"3540705","EPOCH":"2022-08-19T22:00:00.999936","PERIOD":"95.439","DECAY_DATE":null,"APOAPSIS":"541.306","OBJECT_TYPE":"PAYLOAD","RA_OF_ASC_NODE":"220.0471","EPHEMERIS_TYPE":"0","OBJECT_ID":"2022-053Q","INCLINATION":"53.2179","RCS_SIZE":"LARGE","NORAD_CAT_ID":"52670","BSTAR":"0.00203920000000","TLE_LINE1":"1 52670U 22053Q   22231.91667824  .00032301  00000-0  20392-2 0  9992","TIME_SYSTEM":"UTC","TLE_LINE2":"2 52670  53.2179 220.0471 0002186  53.0784 106.9940 15.08824098  1307","MEAN_ELEMENT_THEORY":"SGP4","ECCENTRICITY":"0.00021860","COUNTRY_CODE":"US"},{"ECCENTRICITY":"0.00021190","COUNTRY_CODE":"US","TIME_SYSTEM":"UTC","MEAN_ELEMENT_THEORY":"SGP4","TLE_LINE2":"2 52671  53.2186 220.0429 0002119  47.7915 217.5028 15.08817112  1306","BSTAR":"0.00223910000000","TLE_LINE1":"1 52671U 22053R   22231.91667824  .00035505  00000-0  22391-2 0  9993","RCS_SIZE":"LARGE","NORAD_CAT_ID":"52671","INCLINATION":"53.2186","OBJECT_ID":"2022-053R","EPHEMERIS_TYPE":"0","RA_OF_ASC_NODE":"220.0429","OBJECT_TYPE":"PAYLOAD","DECAY_DATE":null,"APOAPSIS":"541.281","PERIOD":"95.439","EPOCH":"2022-08-19T22:00:00.999936","SITE":"AFETR","FILE":"3540705","PERIAPSIS":"538.349","ARG_OF_PERICENTER":"47.7915","MEAN_ANOMALY":"217.5028","GP_ID":"210550311","OBJECT_NAME":"STARLINK-4071","REV_AT_EPOCH":"130","LAUNCH_DATE":"2022-05-18","MEAN_MOTION":"15.08817112","ELEMENT_SET_NO":"999","REF_FRAME":"TEME","CENTER_NAME":"EARTH","CLASSIFICATION_TYPE":"U","MEAN_MOTION_DOT":"0.00035505","SEMIMAJOR_AXIS":"6917.950","MEAN_MOTION_DDOT":"0.0000000000000"},{"OBJECT_NAME":"STARLINK-4073","REV_AT_EPOCH":"130","LAUNCH_DATE":"2022-05-18","MEAN_ANOMALY":"157.9220","GP_ID":"210550027","REF_FRAME":"TEME","ELEMENT_SET_NO":"999","MEAN_MOTION":"15.08839812","FILE":"3540705","SITE":"AFETR","EPOCH":"2022-08-19T22:00:00.999936","ARG_OF_PERICENTER":"47.3893","PERIAPSIS":"538.248","MEAN_MOTION_DDOT":"0.0000000000000","SEMIMAJOR_AXIS":"6917.881","CENTER_NAME":"EARTH","CLASSIFICATION_TYPE":"U","MEAN_MOTION_DOT":"-0.00003479","TIME_SYSTEM":"UTC","TLE_LINE2":"2 52672  53.2182 220.0470 0002166  47.3893 157.9220 15.08839812  1304","MEAN_ELEMENT_THEORY":"SGP4","RCS_SIZE":"LARGE","NORAD_CAT_ID":"52672","TLE_LINE1":"1 52672U 22053S   22231.91667824 -.00003479  00000-0 -20059-3 0  9991","BSTAR":"-0.00020059000000","ECCENTRICITY":"0.00021660","COUNTRY_CODE":"US","OBJECT_TYPE":"PAYLOAD","PERIOD":"95.438","DECAY_DATE":null,"APOAPSIS":"541.244","INCLINATION":"53.2182","RA_OF_ASC_NODE":"220.0470","EPHEMERIS_TYPE":"0","OBJECT_ID":"2022-053S"},{"PERIOD":"95.439","APOAPSIS":"541.309","DECAY_DATE":null,"OBJECT_TYPE":"PAYLOAD","RA_OF_ASC_NODE":"220.0353","EPHEMERIS_TYPE":"0","OBJECT_ID":"2022-053T","INCLINATION":"53.2167","NORAD_CAT_ID":"52673","RCS_SIZE":"LARGE","BSTAR":"0.00244120000000","TLE_LINE1":"1 52673U 22053T   22231.91667824  .00038752  00000-0  24412-2 0  9998","MEAN_ELEMENT_THEORY":"SGP4","TLE_LINE2":"2 52673  53.2167 220.0353 0002151  48.3293 256.9413 15.08815288  1302","TIME_SYSTEM":"UTC","COUNTRY_CODE":"US","ECCENTRICITY":"0.00021510","MEAN_MOTION_DDOT":"0.0000000000000","SEMIMAJOR_AXIS":"6917.956","MEAN_MOTION_DOT":"0.00038752","CLASSIFICATION_TYPE":"U","CENTER_NAME":"EARTH","ELEMENT_SET_NO":"999","REF_FRAME":"TEME","MEAN_MOTION":"15.08815288","LAUNCH_DATE":"2022-05-18","REV_AT_EPOCH":"130","OBJECT_NAME":"STARLINK-3976","MEAN_ANOMALY":"256.9413","GP_ID":"210550169","ARG_OF_PERICENTER":"48.3293","PERIAPSIS":"538.333","FILE":"3540705","SITE":"AFETR","EPOCH":"2022-08-19T22:00:00.999936"},{"EPHEMERIS_TYPE":"0","RA_OF_ASC_NODE":"220.0498","OBJECT_ID":"2022-053U","INCLINATION":"53.2197","PERIOD":"95.439","DECAY_DATE":null,"APOAPSIS":"541.351","OBJECT_TYPE":"PAYLOAD","ECCENTRICITY":"0.00022030","COUNTRY_CODE":"US","RCS_SIZE":"LARGE","NORAD_CAT_ID":"52674","TLE_LINE1":"1 52674U 22053U   22231.91667824  .00032343  00000-0  20424-2 0  9998","BSTAR":"0.00204240000000","TIME_SYSTEM":"UTC","MEAN_ELEMENT_THEORY":"SGP4","TLE_LINE2":"2 52674  53.2197 220.0498 0002203  45.2310 180.0577 15.08813179  1305","MEAN_MOTION_DOT":"0.00032343","CENTER_NAME":"EARTH","CLASSIFICATION_TYPE":"U","MEAN_MOTION_DDOT":"0.0000000000000","SEMIMAJOR_AXIS":"6917.962","ARG_OF_PERICENTER":"45.2310","PERIAPSIS":"538.303","FILE":"3540705","SITE":"AFETR","EPOCH":"2022-08-19T22:00:00.999936","ELEMENT_SET_NO":"999","REF_FRAME":"TEME","MEAN_MOTION":"15.08813179","OBJECT_NAME":"STARLINK-3936","REV_AT_EPOCH":"130","LAUNCH_DATE":"2022-05-18","GP_ID":"210549473","MEAN_ANOMALY":"180.0577"},{"PERIOD":"95.438","APOAPSIS":"541.241","DECAY_DATE":null,"OBJECT_TYPE":"PAYLOAD","EPHEMERIS_TYPE":"0","RA_OF_ASC_NODE":"210.0500","OBJECT_ID":"2022-053V","INCLINATION":"53.2133","NORAD_CAT_ID":"52675","RCS_SIZE":"LARGE","TLE_LINE1":"1 52675U 22053V   22231.91667824  .00006243  00000-0  41006-3 0  9999","BSTAR":"0.00041006000000","TLE_LINE2":"2 52675  53.2133 210.0500 0002146  51.0975 269.2057 15.08836441  1307","MEAN_ELEMENT_THEORY":"SGP4","TIME_SYSTEM":"UTC","COUNTRY_CODE":"US","ECCENTRICITY":"0.00021460","MEAN_MOTION_DDOT":"0.0000000000000","SEMIMAJOR_AXIS":"6917.891","MEAN_MOTION_DOT":"0.00006243","CLASSIFICATION_TYPE":"U","CENTER_NAME":"EARTH","ELEMENT_SET_NO":"999","REF_FRAME":"TEME","MEAN_MOTION":"15.08836441","LAUNCH_DATE":"2022-05-18","OBJECT_NAME":"STARLINK-3934","REV_AT_EPOCH":"130","GP_ID":"210550460","MEAN_ANOMALY":"269.2057","ARG_OF_PERICENTER":"51.0975","PERIAPSIS":"538.272","FILE":"3540705","SITE":"AFETR","EPOCH":"2022-08-19T22:00:00.999936"},{"COUNTRY_CODE":"US","ECCENTRICITY":"0.00022620","TLE_LINE2":"2 52676  53.2176 220.0395 0002262  48.7464 236.5364 15.08817845  1308","MEAN_ELEMENT_THEORY":"SGP4","TIME_SYSTEM":"UTC","RCS_SIZE":"LARGE","NORAD_CAT_ID":"52676","BSTAR":"0.00236320000000","TLE_LINE1":"1 52676U 22053W   22231.91667824  .00037501  00000-0  23632-2 0  9995","INCLINATION":"53.2176","EPHEMERIS_TYPE":"0","RA_OF_ASC_NODE":"220.0395","OBJECT_ID":"2022-053W","OBJECT_TYPE":"PAYLOAD","PERIOD":"95.439","APOAPSIS":"541.378","DECAY_DATE":null,"FILE":"3540705","SITE":"AFETR","EPOCH":"2022-08-19T22:00:00.999936","ARG_OF_PERICENTER":"48.7464","PERIAPSIS":"538.248","LAUNCH_DATE":"2022-05-18","REV_AT_EPOCH":"130","OBJECT_NAME":"STARLINK-4006","MEAN_ANOMALY":"236.5364","GP_ID":"210549614","ELEMENT_SET_NO":"999","REF_FRAME":"TEME","MEAN_MOTION":"15.08817845","CLASSIFICATION_TYPE":"U","CENTER_NAME":"EARTH","MEAN_MOTION_DOT":"0.00037501","MEAN_MOTION_DDOT":"0.0000000000000","SEMIMAJOR_AXIS":"6917.948"}];
